{
  "type": "FeatureCollection",
  "features": [
    {
      "type": "Feature",
      "properties": {
        "norad_id": 33939,
        "name": "COSMOS 2251 DEB",
        "group": "cosmos-2251-debris",
        "lat": -63.809905946172584,
        "lon": -72.97198590139907,
        "alt_km": 575.4479223046483,
        "timestamp": "2025-12-17T07:00:47.302403+00:00",
        "meta_object_name": "COSMOS 2251 DEB",
        "meta_object_id": "1993-036EU",
        "meta_epoch": "2025-12-16T21:54:16.902432",
        "meta_mean_motion": 15.0020173,
        "meta_eccentricity": 0.00040252,
        "meta_inclination": 74.007,
        "meta_ra_of_asc_node": 72.1297,
        "meta_arg_of_pericenter": 38.6501,
        "meta_mean_anomaly": 321.4973,
        "meta_ephemeris_type": 0,
        "meta_classification_type": "U",
        "meta_norad_cat_id": 33939,
        "meta_element_set_no": 999,
        "meta_rev_at_epoch": 88815,
        "meta_bstar": 0.002375807,
        "meta_mean_motion_dot": 0.00029803,
        "meta_mean_motion_ddot": 0,
        "tle_line1": "1 33939U 93036EU  25350.91269563  .00029803  00000+0  23758-2 0  9992",
        "tle_line2": "2 33939  74.0070  72.1297 0004025  38.6501 321.4973 15.00201730888157"
      },
      "geometry": {
        "type": "Point",
        "coordinates": [
          -72.97198590139907,
          -63.809905946172584
        ]
      }
    },
    {
      "type": "Feature",
      "properties": {
        "norad_id": 33940,
        "name": "COSMOS 2251 DEB",
        "group": "cosmos-2251-debris",
        "lat": 59.53686174245618,
        "lon": 163.94548173287544,
        "alt_km": 697.685680701542,
        "timestamp": "2025-12-17T07:00:47.302413+00:00",
        "meta_object_name": "COSMOS 2251 DEB",
        "meta_object_id": "1993-036EV",
        "meta_epoch": "2025-12-16T19:45:09.583776",
        "meta_mean_motion": 14.58834557,
        "meta_eccentricity": 0.001112,
        "meta_inclination": 74.0385,
        "meta_ra_of_asc_node": 135.7213,
        "meta_arg_of_pericenter": 215.7084,
        "meta_mean_anomaly": 265.0436,
        "meta_ephemeris_type": 0,
        "meta_classification_type": "U",
        "meta_norad_cat_id": 33940,
        "meta_element_set_no": 999,
        "meta_rev_at_epoch": 88653,
        "meta_bstar": 0.00083115196,
        "meta_mean_motion_dot": 3.865e-05,
        "meta_mean_motion_ddot": 0,
        "tle_line1": "1 33940U 93036EV  25350.82302759  .00003865  00000+0  83115-3 0  9993",
        "tle_line2": "2 33940  74.0385 135.7213 0011120 215.7084 265.0436 14.58834557886538"
      },
      "geometry": {
        "type": "Point",
        "coordinates": [
          163.94548173287544,
          59.53686174245618
        ]
      }
    },
    {
      "type": "Feature",
      "properties": {
        "norad_id": 33942,
        "name": "COSMOS 2251 DEB",
        "group": "cosmos-2251-debris",
        "lat": -71.30373091938125,
        "lon": -151.31701438623057,
        "alt_km": 766.7824652147192,
        "timestamp": "2025-12-17T07:00:47.302423+00:00",
        "meta_object_name": "COSMOS 2251 DEB",
        "meta_object_id": "1993-036EX",
        "meta_epoch": "2025-12-16T19:57:18.307296",
        "meta_mean_motion": 14.37994713,
        "meta_eccentricity": 0.00204961,
        "meta_inclination": 74.0366,
        "meta_ra_of_asc_node": 267.2932,
        "meta_arg_of_pericenter": 349.7662,
        "meta_mean_anomaly": 66.0672,
        "meta_ephemeris_type": 0,
        "meta_classification_type": "U",
        "meta_norad_cat_id": 33942,
        "meta_element_set_no": 999,
        "meta_rev_at_epoch": 88193,
        "meta_bstar": 0.00020059118,
        "meta_mean_motion_dot": 5.82e-06,
        "meta_mean_motion_ddot": 0,
        "tle_line1": "1 33942U 93036EX  25350.83146189  .00000582  00000+0  20059-3 0  9990",
        "tle_line2": "2 33942  74.0366 267.2932 0020496 349.7662  66.0672 14.37994713881932"
      },
      "geometry": {
        "type": "Point",
        "coordinates": [
          -151.31701438623057,
          -71.30373091938125
        ]
      }
    },
    {
      "type": "Feature",
      "properties": {
        "norad_id": 33944,
        "name": "COSMOS 2251 DEB",
        "group": "cosmos-2251-debris",
        "lat": 33.14373612515635,
        "lon": 109.7808277187261,
        "alt_km": 786.5176403567048,
        "timestamp": "2025-12-17T07:00:47.302434+00:00",
        "meta_object_name": "COSMOS 2251 DEB",
        "meta_object_id": "1993-036EZ",
        "meta_epoch": "2025-12-16T23:58:45.683040",
        "meta_mean_motion": 14.37353032,
        "meta_eccentricity": 0.01123511,
        "meta_inclination": 74.0404,
        "meta_ra_of_asc_node": 301.0895,
        "meta_arg_of_pericenter": 39.5947,
        "meta_mean_anomaly": 28.5245,
        "meta_ephemeris_type": 0,
        "meta_classification_type": "U",
        "meta_norad_cat_id": 33944,
        "meta_element_set_no": 999,
        "meta_rev_at_epoch": 88089,
        "meta_bstar": 0.00032121359,
        "meta_mean_motion_dot": 1.004e-05,
        "meta_mean_motion_ddot": 0,
        "tle_line1": "1 33944U 93036EZ  25350.99913985  .00001004  00000+0  32121-3 0  9998",
        "tle_line2": "2 33944  74.0404 301.0895 0112351  39.5947  28.5245 14.37353032880890"
      },
      "geometry": {
        "type": "Point",
        "coordinates": [
          109.7808277187261,
          33.14373612515635
        ]
      }
    },
    {
      "type": "Feature",
      "properties": {
        "norad_id": 33945,
        "name": "COSMOS 2251 DEB",
        "group": "cosmos-2251-debris",
        "lat": -65.91898050232477,
        "lon": 157.77268506501244,
        "alt_km": 793.6788300018325,
        "timestamp": "2025-12-17T07:00:47.302446+00:00",
        "meta_object_name": "COSMOS 2251 DEB",
        "meta_object_id": "1993-036FA",
        "meta_epoch": "2025-12-16T23:08:55.262400",
        "meta_mean_motion": 14.3460446,
        "meta_eccentricity": 0.00220923,
        "meta_inclination": 74.03,
        "meta_ra_of_asc_node": 298.5256,
        "meta_arg_of_pericenter": 23.7035,
        "meta_mean_anomaly": 336.513,
        "meta_ephemeris_type": 0,
        "meta_classification_type": "U",
        "meta_norad_cat_id": 33945,
        "meta_element_set_no": 999,
        "meta_rev_at_epoch": 88076,
        "meta_bstar": 0.000124169,
        "meta_mean_motion_dot": 3.26e-06,
        "meta_mean_motion_ddot": 0,
        "tle_line1": "1 33945U 93036FA  25350.96452850  .00000326  00000+0  12417-3 0  9997",
        "tle_line2": "2 33945  74.0300 298.5256 0022092  23.7035 336.5130 14.34604460880764"
      },
      "geometry": {
        "type": "Point",
        "coordinates": [
          157.77268506501244,
          -65.91898050232477
        ]
      }
    },
    {
      "type": "Feature",
      "properties": {
        "norad_id": 33948,
        "name": "COSMOS 2251 DEB",
        "group": "cosmos-2251-debris",
        "lat": 58.09303545789209,
        "lon": 89.41014013122084,
        "alt_km": 771.6052886826474,
        "timestamp": "2025-12-17T07:00:47.302456+00:00",
        "meta_object_name": "COSMOS 2251 DEB",
        "meta_object_id": "1993-036FD",
        "meta_epoch": "2025-12-16T07:03:12.623040",
        "meta_mean_motion": 14.35633717,
        "meta_eccentricity": 0.00228695,
        "meta_inclination": 74.0358,
        "meta_ra_of_asc_node": 298.6128,
        "meta_arg_of_pericenter": 13.5461,
        "meta_mean_anomaly": 346.63,
        "meta_ephemeris_type": 0,
        "meta_classification_type": "U",
        "meta_norad_cat_id": 33948,
        "meta_element_set_no": 999,
        "meta_rev_at_epoch": 88074,
        "meta_bstar": 0.00019251642,
        "meta_mean_motion_dot": 5.31e-06,
        "meta_mean_motion_ddot": 0,
        "tle_line1": "1 33948U 93036FD  25350.29389610  .00000531  00000+0  19252-3 0  9991",
        "tle_line2": "2 33948  74.0358 298.6128 0022869  13.5461 346.6300 14.35633717880748"
      },
      "geometry": {
        "type": "Point",
        "coordinates": [
          89.41014013122084,
          58.09303545789209
        ]
      }
    },
    {
      "type": "Feature",
      "properties": {
        "norad_id": 33971,
        "name": "COSMOS 2251 DEB",
        "group": "cosmos-2251-debris",
        "lat": -66.43575735767706,
        "lon": 106.3770647206361,
        "alt_km": 766.8282227926411,
        "timestamp": "2025-12-17T07:00:47.302481+00:00",
        "meta_object_name": "COSMOS 2251 DEB",
        "meta_object_id": "1993-036FE",
        "meta_epoch": "2025-12-16T23:13:21.455616",
        "meta_mean_motion": 14.39732793,
        "meta_eccentricity": 0.00187023,
        "meta_inclination": 74.0246,
        "meta_ra_of_asc_node": 245.9195,
        "meta_arg_of_pericenter": 345.6118,
        "meta_mean_anomaly": 25.2588,
        "meta_ephemeris_type": 0,
        "meta_classification_type": "U",
        "meta_norad_cat_id": 33971,
        "meta_element_set_no": 999,
        "meta_rev_at_epoch": 88200,
        "meta_bstar": 0.00022598523,
        "meta_mean_motion_dot": 6.83e-06,
        "meta_mean_motion_ddot": 0,
        "tle_line1": "1 33971U 93036FE  25350.96760944  .00000683  00000+0  22599-3 0  9990",
        "tle_line2": "2 33971  74.0246 245.9195 0018702 345.6118  25.2588 14.39732793882005"
      },
      "geometry": {
        "type": "Point",
        "coordinates": [
          106.3770647206361,
          -66.43575735767706
        ]
      }
    }
  ]
}